2024-128H               
1 60242U 24128H   24220.53660350  .00008684  00000+0  77977-3 0  9994
2 60242  61.9851  62.5353 0013841 285.8776  74.0786 14.96263216  4297
ROBUSTA-3A (MEDITERRAN*)
1 60243U 24128J   24220.54023943  .00008442  00000+0  76259-3 0  9991
2 60243  61.9918  62.5812 0012917 276.8462  83.1156 14.96064322  4296
CATSAT                  
1 60246U 24125J   24220.53799554  .00012455  00000+0  56591-3 0  9994
2 60246  97.3009  73.6937 0054223  96.5681 264.1731 15.19553896  3339
2024-130A               
1 60249U 24130A   24220.49233166  .00179884  90204-5  10118-2 0  9995
2 60249  97.4754 290.1486 0303202 122.2079 240.8949 15.35831163  2961
2024-130B               
1 60250U 24130B   24220.13086662  .00591384  21641-5  94729-3 0  9998
2 60250  97.4202 290.9195 0140727 101.7653 259.9444 15.87614966  2998
STARLINK-32138          
1 60255U 24131A   24220.58335648 -.00988904  00000+0 -50050-2 0  9992
2 60255  53.1564 230.9273 0000528  76.1482 309.1463 15.83307421  2869
STARLINK-32212          
1 60256U 24131B   24220.16667824 -.01011500  00000+0 -49089-2 0  9991
2 60256  53.1565 233.0195 0000701  80.7693  89.2599 15.84236872  2853
STARLINK-32166          
1 60257U 24131C   24220.16667824 -.01017259  00000+0 -49377-2 0  9999
2 60257  53.1564 233.0143 0000705  87.7281  84.8095 15.84247649  2867
STARLINK-32200          
1 60258U 24131D   24220.16667824 -.01025188  00000+0 -49786-2 0  9994
2 60258  53.1564 233.0088 0000670 106.9674  68.1560 15.84257803  2862
STARLINK-32207          
1 60259U 24131E   24220.16667824 -.01030688  00000+0 -50037-2 0  9997
2 60259  53.1564 233.0045 0000680  88.0325  89.2027 15.84278141  2859
STARLINK-32125          
1 60260U 24131F   24220.16667824 -.01034739  00000+0 -50228-2 0  9992
2 60260  53.1559 232.9997 0000764  81.5676  98.0655 15.84289803  2851
STARLINK-32160          
1 60261U 24131G   24220.58335648 -.01016271  00000+0 -51409-2 0  9998
2 60261  53.1561 230.8996 0000711  60.3805 338.1179 15.83385508  2972
STARLINK-32163          
1 60262U 24131H   24220.58335648 -.01030802  00000+0 -52195-2 0  9998
2 60262  53.1563 230.8897 0000539  73.9252 329.2972 15.83403661  2927
STARLINK-32148          
1 60263U 24131J   24220.58335648 -.01025368  00000+0 -51913-2 0  9997
2 60263  53.1561 230.8944 0000557  73.6449 327.3158 15.83392410  2973
STARLINK-32121          
1 60264U 24131K   24220.16667824 -.01056118  00000+0 -51210-2 0  9993
2 60264  53.1564 232.9820 0000672  91.2614  96.9258 15.84367060  2908
STARLINK-32120          
1 60265U 24131L   24220.58335648 -.01046834  00000+0 -53054-2 0  9998
2 60265  53.1562 230.8751 0000785  60.8184 349.5516 15.83423468  2982
STARLINK-32205          
1 60266U 24131M   24220.58335648 -.01042635  00000+0 -52837-2 0  9992
2 60266  53.1563 230.8799 0000880  61.8473 346.2636 15.83413462  2928
STARLINK-32158          
1 60267U 24131N   24220.58335648 -.01052167  00000+0 -53317-2 0  9998
2 60267  53.1561 230.8707 0000661  63.3163 349.1145 15.83441201  2813
STARLINK-32167          
1 60268U 24131P   24220.16667824 -.01085913  00000+0 -52679-2 0  9992
2 60268  53.1563 232.9576 0000691 103.9100  96.0690 15.84432753  2869
STARLINK-32144          
1 60269U 24131Q   24220.58335648 -.01060575  00000+0 -53796-2 0  9993
2 60269  53.1563 230.8657 0000637  66.3561 348.6468 15.83442406  2976
STARLINK-32211          
1 60270U 24131R   24220.16667824 -.01089856  00000+0 -52825-2 0  9998
2 60270  53.1564 232.9540 0000738  76.3584 125.4211 15.84459983  2854
STARLINK-32164          
1 60271U 24131S   24220.16667824 -.01097133  00000+0 -53200-2 0  9994
2 60271  53.1562 232.9487 0000990  75.7973 128.5509 15.84467113  2340
STARLINK-32128          
1 60272U 24131T   24219.16667824 -.01100565  00000+0 -47505-2 0  9998
2 60272  53.1565 237.9911 0000874 113.0373 141.8718 15.86849086  2718
STARLINK-32206          
1 60273U 24131U   24220.16667824 -.01135233  00000+0 -54077-2 0  9993
2 60273  53.1562 232.9340 0000740  82.5274 128.7890 15.84506678  2854
STARLINK-32155          
1 60274U 24131V   24220.16667824 -.01129945  00000+0 -53832-2 0  9995
2 60274  53.1563 232.9388 0000737  78.3368 130.7018 15.84493008  2791
STARLINK-32152          
1 60275U 24131W   24220.16667824 -.01143436  00000+0 -54497-2 0  9995
2 60275  53.1563 232.9287 0000691  88.9509 124.9392 15.84513224  2796
STARLINK-32154          
1 60276U 24131X   24220.16667824 -.01147449  00000+0 -54639-2 0  9992
2 60276  53.1562 232.9248 0000700  79.0705 136.6317 15.84540167  2853
STARLINK-32135          
1 60277U 24131Y   24220.16667824 -.01154234  00000+0 -54983-2 0  9995
2 60277  53.1562 232.9194 0000788  77.0890 141.1700 15.84545711  2850
STARLINK-32156          
1 60278U 24132A   24220.58335648 -.00984353  00000+0 -53415-2 0  9990
2 60278  53.1571 228.0761 0001019  56.4158  37.2234 15.81821373  2814
STARLINK-32010          
1 60279U 24132B   24220.58335648 -.00989131  00000+0 -53653-2 0  9994
2 60279  53.1571 228.0719 0000923  66.3433  29.2556 15.81843065  2817
STARLINK-32118          
1 60280U 24132C   24220.16667824 -.01010555  00000+0 -52642-2 0  9997
2 60280  53.1570 230.1589 0000919 106.8409 136.2524 15.82753456  2746
STARLINK-32038          
1 60281U 24132D   24220.58335648 -.01001542  00000+0 -54360-2 0  9995
2 60281  53.1570 228.0626 0000854  67.1884  32.9408 15.81862535  2818
STARLINK-32113          
1 60282U 24132E   24220.08334491 -.01001419  00000+0 -51576-2 0  9995
2 60282  53.1568 230.5685 0000883 102.8058  29.2461 15.82969710  2734
STARLINK-32037          
1 60283U 24132F   24220.16667824 -.01125709  00000+0 -57550-2 0  9991
2 60283  53.1575 230.0912 0000756  93.6286 182.1848 15.83013691  2748
STARLINK-32123          
1 60284U 24132G   24220.58335648 -.01011851  00000+0 -54900-2 0  9992
2 60284  53.1570 228.0539 0001112  60.1876  44.1375 15.81894115  2813
STARLINK-32122          
1 60285U 24132H   24220.58335648 -.01018086  00000+0 -55252-2 0  9991
2 60285  53.1568 228.0493 0001128  61.7979  44.7573 15.81904815  2813
STARLINK-31656          
1 60286U 24132J   24220.58335648 -.01030763  00000+0 -55969-2 0  9993
2 60286  53.1568 228.0403 0000864  94.8231  16.1149 15.81929408  2816
STARLINK-32114          
1 60287U 24132K   24220.58335648 -.01025883  00000+0 -55712-2 0  9997
2 60287  53.1570 228.0447 0001254  60.9092  48.0388 15.81909660  2818
STARLINK-31997          
1 60288U 24132L   24220.16667824 -.01054083  00000+0 -54866-2 0  9999
2 60288  53.1568 230.1276 0000811  97.0202 161.1975 15.82882861  2747
STARLINK-32000          
1 60289U 24132M   24220.16667824 -.01059397  00000+0 -55113-2 0  9999
2 60289  53.1568 230.1236 0000826  93.4330 166.7284 15.82907693  2747
STARLINK-32141          
1 60290U 24132N   24220.08334491 -.01043021  00000+0 -53652-2 0  9996
2 60290  53.1565 230.5371 0001337  85.3230  62.0551 15.83096984  2734
STARLINK-32142          
1 60291U 24132P   24220.16667824 -.01072530  00000+0 -55808-2 0  9997
2 60291  53.1566 230.1144 0000813  93.9371 170.7363 15.82937349  2746
STARLINK-32149          
1 60292U 24132Q   24220.16667824 -.01076499  00000+0 -55993-2 0  9991
2 60292  53.1567 230.1102 0000820  98.6328 168.1412 15.82955625  2747
STARLINK-32159          
1 60293U 24132R   24220.16667824 -.01081131  00000+0 -56213-2 0  9997
2 60293  53.1567 230.1058 0000796 101.5208 167.3177 15.82975717  2744
STARLINK-32150          
1 60294U 24132S   24220.08334491 -.01074607  00000+0 -55262-2 0  9993
2 60294  53.1565 230.5145 0000944 100.7366  57.5031 15.83187974  2734
STARLINK-32126          
1 60295U 24132T   24220.08334491 -.01067338  00000+0 -54902-2 0  9997
2 60295  53.1567 230.5191 0000741  93.0939  63.0785 15.83166104  2733
STARLINK-32143          
1 60296U 24132U   24220.08334491 -.01087385  00000+0 -55946-2 0  9991
2 60296  53.1566 230.5049 0000862  81.9172  81.0084 15.83211806  2736
STARLINK-32034          
1 60297U 24132V   24220.58335648 -.01120617  00000+0 -59980-2 0  9990
2 60297  53.1564 227.9895 0001154  63.2379  72.2974 15.82030164  2804
STARLINK-32124          
1 60298U 24132W   24220.08334491 -.01128582  00000+0 -57014-2 0  9996
2 60298  53.1565 230.4915 0000894 100.9973  68.3669 15.83268237  2731
STARLINK-32151          
1 60299U 24132X   24220.08334491 -.01122979  00000+0 -56758-2 0  9995
2 60299  53.1566 230.4956 0000933  92.3267  75.0209 15.83245962  2737
STARLINK-32134          
1 60300U 24132Y   24220.08334491 -.01133530  00000+0 -57237-2 0  9996
2 60300  53.1564 230.4869 0000918 101.5417  69.8869 15.83288421  2734
STARLINK-11147 [DTC]    
1 60301U 24133A   24220.08334491 -.00758547  00000+0 -27985-2 0  9995
2 60301  53.1660 127.5156 0000633  88.9394 335.2478 15.89183750  2688
STARLINK-11128 [DTC]    
1 60302U 24133B   24220.41667824 -.00781448  00000+0 -28871-2 0  9993
2 60302  53.1652 125.8059 0000613  71.0364 109.8490 15.89206949  2686
STARLINK-11227 [DTC]    
1 60303U 24133C   24219.58334491 -.00736681  17477-3 -22831-2 0  9990
2 60303  53.1658 130.0203 0000468 131.3321 324.8684 15.90927907  2650
STARLINK-11224 [DTC]    
1 60304U 24133D   24220.08334491 -.00690614  00000+0 -23471-2 0  9994
2 60304  53.1660 127.4646 0000841  66.3250  22.4877 15.90637008  2732
STARLINK-11115 [DTC]    
1 60305U 24133E   24220.41667824 -.00728171  00000+0 -24875-2 0  9990
2 60305  53.1653 125.7527 0000733  65.8050 140.7736 15.90619733  2740
STARLINK-11109 [DTC]    
1 60306U 24133F   24219.91667824 -.00746024  18014-3 -22189-2 0  9995
2 60306  53.1663 128.2818 0000610 116.7781 111.2300 15.91727516  2665
STARLINK-11223 [DTC]    
1 60307U 24133G   24219.91667824 -.00712604  16721-3 -20387-2 0  9994
2 60307  53.1659 128.2541 0000670 110.1033 131.0019 15.92467022  2603
